     2.100          NAVIGATION                              RINEX VERSION / TYPE
fic2rin                                 06/04/2010 00:12:31 PGM / RUN BY / DATE
                                                            END OF HEADER
15 10  6  3 14  0  0.0 -.262588262558D-03  .636646291241D-11  .000000000000D+00
     .900000000000D+01  .396562500000D+02  .472483966568D-08  .233856492147D+01
     .218488276005D-05  .248459563591D-02  .819377601147D-05  .515376689339D+04
     .396000000000D+06 -.130385160446D-07  .131966704897D+01  .104308128357D-06
     .953560621479D+00  .219718750000D+03 -.166092603086D+00 -.811033782812D-08
    -.117862052285D-09  .100000000000D+01  .158600000000D+04  .000000000000D+00
     .240000000000D+01  .000000000000D+00 -.977888703346D-08  .900000000000D+01
     .388806000000D+06  .400000000000D+01
16 10  6  3 14  0  0.0 -.778557732701D-04 -.375166564481D-11  .000000000000D+00
     .460000000000D+02 -.701875000000D+02  .423160483476D-08 -.221358191685D+01
    -.358000397682D-05  .594149553217D-02  .656768679619D-05  .515377522850D+04
     .396000000000D+06 -.391155481339D-07 -.282484688587D+01  .316649675369D-07
     .972387565239D+00  .261750000000D+03 -.213281476121D+00 -.800676208521D-08
    -.321441960776D-10  .100000000000D+01  .158600000000D+04  .000000000000D+00
     .240000000000D+01  .000000000000D+00 -.977888703346D-08  .460000000000D+02
     .388806000000D+06  .400000000000D+01
17 10  6  3 14  0  0.0  .154631678015D-03  .227373675443D-11  .000000000000D+00
     .530000000000D+02 -.222187500000D+02  .427839249793D-08  .290849462083D+01
    -.102631747723D-05  .545260484796D-02  .957958400249D-05  .515361508751D+04
     .396000000000D+06 -.186264514923D-08 -.178195505027D+01 -.689178705215D-07
     .959925181171D+00  .194531250000D+03 -.250314242712D+01 -.778389565907D-08
     .249653256203D-09  .100000000000D+01  .158600000000D+04  .000000000000D+00
     .240000000000D+01  .000000000000D+00 -.102445483208D-07  .530000000000D+02
     .388806000000D+06  .400000000000D+01
19 10  6  3 14  0  0.0 -.395714305341D-04 -.272848410532D-11  .000000000000D+00
     .100000000000D+02 -.275000000000D+02  .442054127614D-08  .226223870383D+01
    -.137463212013D-05  .654066912830D-02  .100042670965D-04  .515374839592D+04
     .396000000000D+06 -.167638063431D-07 -.172692643143D+01  .111758708954D-06
     .957525059254D+00  .182656250000D+03 -.154021558382D+00 -.792818738368D-08
     .181793286706D-09  .100000000000D+01  .158600000000D+04  .000000000000D+00
     .240000000000D+01  .000000000000D+00 -.149011611938D-07  .100000000000D+02
     .388806000000D+06  .400000000000D+01
21 10  6  3 14  0  0.0 -.645667314529D-04 -.261479726760D-11  .000000000000D+00
     .320000000000D+02  .340937500000D+02  .546844206828D-08 -.807226643476D+00
     .207871198654D-05  .166149813449D-01  .633858144283D-05  .515366446304D+04
     .396000000000D+06  .301748514175D-06 -.744785181738D+00  .249594449997D-06
     .932459457456D+00  .239281250000D+03 -.247725587958D+01 -.861178728694D-08
     .263225250103D-09  .100000000000D+01  .158600000000D+04  .000000000000D+00
     .240000000000D+01  .000000000000D+00 -.121071934700D-07  .320000000000D+02
     .388806000000D+06  .400000000000D+01
22 10  6  3 14  0  0.0  .170618295670D-03 -.682121026330D-12  .000000000000D+00
     .109000000000D+03  .268750000000D+01  .533415076022D-08 -.284182346501D+01
     .502914190292D-07  .531043915544D-02  .688806176186D-05  .515371397591D+04
     .396000000000D+06  .156462192535D-06  .316567699870D+00 -.242143869400D-07
     .935264902772D+00  .232125000000D+03 -.194078503020D+01 -.836999150089D-08
    -.258225041824D-09  .100000000000D+01  .158600000000D+04  .000000000000D+00
     .485000000000D+01  .000000000000D+00 -.176951289177D-07  .109000000000D+03
     .388806000000D+06  .400000000000D+01
23 10  6  3 14  0  0.0  .368435401469D-03 -.147792889038D-11  .000000000000D+00
     .420000000000D+02  .330937500000D+02  .436268172321D-08  .173832724022D+01
     .201538205147D-05  .671477522701D-02  .847876071930D-05  .515368866539D+04
     .396000000000D+06  .633299350739D-07  .134489204886D+01  .912696123123D-07
     .967780353445D+00  .219406250000D+03  .301848932753D+01 -.801069082028D-08
    -.206080012631D-09  .100000000000D+01  .158600000000D+04  .000000000000D+00
     .240000000000D+01  .000000000000D+00 -.200234353542D-07  .420000000000D+02
     .388806000000D+06  .400000000000D+01
24 10  6  3 14  0  0.0  .293013174087D-03  .329691829393D-11  .000000000000D+00
     .320000000000D+02  .335625000000D+02  .498735060031D-08  .288738464273D+01
     .173598527908D-05  .567259534728D-02  .673159956932D-05  .515485612297D+04
     .396000000000D+06 -.391155481339D-07 -.706185984349D+00  .121071934700D-06
     .949089693670D+00  .238875000000D+03 -.473951692070D+00 -.818069790176D-08
     .252510518077D-09  .100000000000D+01  .158600000000D+04  .000000000000D+00
     .240000000000D+01  .000000000000D+00 -.139698386192D-08  .320000000000D+02
     .388806000000D+06  .400000000000D+01
26 10  6  3 14  0  0.0 -.608270056546D-04 -.534328137292D-11  .000000000000D+00
     .830000000000D+02  .392500000000D+02  .396945105786D-08  .803655158663D+00
     .233016908169D-05  .194156123325D-01  .869110226631D-05  .515236821556D+04
     .396000000000D+06 -.217929482460D-06  .140237018066D+01  .100582838058D-06
     .990404539536D+00  .234031250000D+03  .109654554112D+01 -.805390690612D-08
    -.254296306748D-09  .100000000000D+01  .158600000000D+04  .000000000000D+00
     .240000000000D+01  .000000000000D+00 -.605359673500D-08  .830000000000D+02
     .388806000000D+06  .400000000000D+01
27 10  6  3 14  0  0.0  .157739967108D-03  .341060513165D-11  .000000000000D+00
     .190000000000D+02  .241250000000D+02  .412981488051D-08  .249818067566D+01
     .132992863655D-05  .215084201191D-01  .419095158577D-05  .515362443924D+04
     .396000000000D+06  .281259417534D-06  .233125386256D+01 -.540167093277D-07
     .978419050669D+00  .298687500000D+03 -.141484137442D+01 -.769960643380D-08
    -.101075638777D-09  .100000000000D+01  .158600000000D+04  .000000000000D+00
     .240000000000D+01  .000000000000D+00 -.419095158577D-08  .190000000000D+02
     .388806000000D+06  .400000000000D+01
28 10  6  3 14  0  0.0 -.145458616316D-04  .102318153949D-11  .000000000000D+00
     .680000000000D+02 -.683125000000D+02  .408481300600D-08 -.272159939141D+01
    -.354275107384D-05  .159677624470D-01  .626593828201D-05  .515367462349D+04
     .396000000000D+06  .145286321640D-06 -.281714317243D+01 -.106170773506D-06
     .970626798502D+00  .262218750000D+03 -.195411621790D+01 -.766603360678D-08
     .821462788651D-11  .100000000000D+01  .158600000000D+04  .000000000000D+00
     .240000000000D+01  .000000000000D+00 -.107102096081D-07  .680000000000D+02
     .388806000000D+06  .400000000000D+01
29 10  6  3 14  0  0.0  .124637968838D-03  .284217094304D-11  .000000000000D+00
     .110000000000D+02 -.184375000000D+02  .431017953628D-08 -.630948707329D+00
    -.976026058197D-06  .303359667305D-02  .103879719973D-04  .515373565292D+04
     .396000000000D+06 -.100582838058D-06 -.177368692694D+01  .763684511185D-07
     .960257017805D+00  .180000000000D+03 -.128785463723D+01 -.788532845558D-08
     .249653256203D-09  .100000000000D+01  .158600000000D+04  .000000000000D+00
     .240000000000D+01  .000000000000D+00 -.884756445885D-08  .110000000000D+02
     .388806000000D+06  .400000000000D+01
30 10  6  3 14  0  0.0  .248544849455D-03  .341060513165D-11  .000000000000D+00
     .370000000000D+02 -.698750000000D+02  .449018703431D-08 -.228126491166D+01
    -.351294875145D-05  .122531043598D-01  .572018325329D-05  .515372993088D+04
     .396000000000D+06  .162050127983D-06 -.289594004074D+01  .167638063431D-07
     .956480484543D+00  .264375000000D+03  .148223468365D+01 -.796568894578D-08
    -.109647424398D-09  .100000000000D+01  .158600000000D+04  .000000000000D+00
     .240000000000D+01  .000000000000D+00 -.791624188423D-08  .370000000000D+02
     .388806000000D+06  .400000000000D+01
31 10  6  3 14  0  0.0 -.329874455929D-04  .216004991671D-11  .000000000000D+00
     .143000000000D+03  .198125000000D+02  .425053419467D-08  .842967512523D-01
     .100024044514D-05  .737255648710D-02  .517442822456D-05  .515369649124D+04
     .396000000000D+06 -.316649675369D-07  .238704435012D+01 -.143423676491D-06
     .976948273794D+00  .291437500000D+03 -.105115560967D+01 -.819498421113D-08
     .514307137242D-10  .100000000000D+01  .158600000000D+04  .000000000000D+00
     .240000000000D+01  .000000000000D+00 -.130385160446D-07  .143000000000D+03
     .388806000000D+06  .400000000000D+01
32 10  6  3 14  0  0.0 -.743241980672D-05 -.852651282912D-11  .000000000000D+00
     .210000000000D+02  .318750000000D+01  .489913263997D-08  .881139692902D+00
    -.558793544769D-08  .126380412839D-01  .699609518051D-05  .515372185707D+04
     .396000000000D+06  .856816768646D-07  .375085710408D+00 -.283122062683D-06
     .959398786673D+00  .247625000000D+03 -.977805918296D+00 -.830284584686D-08
    -.242510101519D-09  .100000000000D+01  .158600000000D+04  .000000000000D+00
     .240000000000D+01  .000000000000D+00 -.325962901115D-08  .210000000000D+02
     .388806000000D+06  .400000000000D+01
 1 10  6  3 16  0  0.0 -.126319937408D-03 -.397903932026D-11  .000000000000D+00
     .740000000000D+02 -.688750000000D+02  .561844831664D-08 -.172115085133D+01
    -.354647636414D-05  .473944679834D-02  .615231692791D-05  .515480414581D+04
     .403200000000D+06  .707805156708D-07 -.285673626319D+01 -.614672899246D-07
     .965096625840D+00  .263718750000D+03  .870435405746D+00 -.800711924294D-08
    -.184650548579D-09  .100000000000D+01  .158600000000D+04  .000000000000D+00
     .240000000000D+01  .630000000000D+02 -.190921127796D-07  .740000000000D+02
     .396006000000D+06  .400000000000D+01
